P/2009 U4 (McNaught),e,10.0803,55.3490,259.8218,5.076505,0.0861701,0.67565408,10.9582,06/02.0/2021,2000,g 14.0,4.0
# From MPEC 2021-L04
C/2010 U3 (Boattini),e,55.5284,43.0214,88.0621,2285,0.0000090,0.99630460,0.0000,02/25.6087/2019,2000,g  1.0,4.0
# From MPC105235
P/2009 WX51 (Catalina),e,9.5948,31.6766,118.0910,3.080943,0.1822547,0.74027633,36.0207,06/02.0/2021,2000,g 19.0,2.0
# From MPC 74247
P/2009 Y2 (Kowalski),e,29.9340,262.0256,172.1479,6.549882,0.0587968,0.63603518,241.7425,06/02.0/2021,2000,g 13.0,4.0
# From MPC 75711
P/2010 A3 (Hill),e,14.8404,63.8995,42.0972,6.077962,0.0657759,0.73346808,269.2357,06/02.0/2021,2000,g 14.0,4.0
# From MPC 75008
P/2010 C1 (Scotti),e,9.1281,141.8861,3.6782,7.103486,0.0520591,0.25880706,219.6619,06/02.0/2021,2000,g  9.5,4.0
# From MPC 75008
P/2010 D2 (WISE),e,57.0857,319.8910,120.0426,6.716960,0.0566168,0.45098993,233.6517,06/02.0/2021,2000,g 16.0,4.0
# From MPC 75009
P/2010 E2 (Jarnac),e,15.3965,177.8235,8.3610,8.639026,0.0388157,0.71990347,158.3631,06/02.0/2021,2000,g 14.0,4.0
# From MPC 72851
P/2010 H2 (Vales),e,14.2741,64.1980,128.1208,3.833608,0.1313084,0.19585674,178.8882,06/02.0/2021,2000,g  6.0,4.0
# From MPC 70361
P/2010 H3 (SOHO),e,23.0824,77.0983,26.1431,3.037790,0.1861519,0.98537933,0.0000,02/07.9637/2021,2000,g 20.0,2.0
# From MPC 73463
P/2010 H4 (Scotti),e,2.3185,44.7405,179.5310,6.591948,0.0582349,0.26713013,233.0598,06/02.0/2021,2000,g 10.5,4.0
# From MPC 74637
P/2010 H5 (Scotti),e,14.0633,24.8051,175.1838,7.162034,0.0514221,0.15321117,209.6053,06/02.0/2021,2000,g 13.0,2.0
# From MPC 98558
P/2010 J3 (McMillan),e,13.2858,106.4186,157.5970,8.972914,0.0366694,0.72688913,144.0882,06/02.0/2021,2000,g 11.0,4.0
# From MPC 84315
P/2010 JC81 (WISE),e,38.7508,30.8488,12.4308,8.109592,0.0426781,0.77701997,157.7378,06/02.0/2021,2000,g  9.0,4.0
# From MPC 74248
P/2010 T2 (PANSTARRS),e,7.8982,58.8863,353.3873,5.528825,0.0758149,0.32153913,282.2967,06/02.0/2021,2000,g 11.5,4.0
# From MPC 98558
P/2010 TO20 (LINEAR-Grauer),e,2.4789,43.2934,266.8274,5.830653,0.0700049,0.05499579,322.4691,06/02.0/2021,2000,g  9.0,4.0
# From MPC 82316
P/2010 U1 (Boattini),e,8.2151,280.7083,85.9635,6.509639,0.0593429,0.24841293,246.0096,06/02.0/2021,2000,g  9.5,4.0
# From MPC119994
C/2010 U3 (Boattini),e,55.5284,43.0214,88.0622,2281,0.0000090,0.99629757,0.0000,02/25.6117/2019,2000,g  1.0,4.0
# From MPC 79021
P/2010 UH55 (Spacewatch),e,8.0418,232.9498,225.1753,6.652637,0.0574399,0.56337529,212.8359,06/02.0/2021,2000,g 11.0,4.0
# From MPC 75009
P/2010 WK (LINEAR),e,11.4010,11.3228,40.9726,5.761316,0.0712724,0.68995962,278.3174,06/02.0/2021,2000,g 14.5,2.0
# From MPC 82317
P/2011 A2 (Scotti),e,4.4749,54.6765,94.5147,3.105960,0.1800571,0.49948759,327.1138,06/02.0/2021,2000,g 16.5,4.0
# From MPC 84021
P/2011 C2 (Gibbs),e,10.8850,12.1243,160.9044,7.413813,0.0488249,0.26889919,168.0451,06/02.0/2021,2000,g  9.0,4.0
# From MPEC 2021-L04
P/2011 FR143 (Lemmon),e,15.9819,190.9511,350.0917,6.858590,0.0548721,0.45070228,205.5950,06/02.0/2021,2000,g 14.0,2.0
# From MPEC 2021-L04
C/2014 B1 (Schwartz),e,28.4094,161.4185,345.7370,6033,0.0000021,0.99841685,0.0000,09/08.0541/2017,2000,g  4.0,4.0
# From MPEC 2021-L04
C/2016 Q2 (PANSTARRS),h,05/11.8938/2021,109.3882,322.2957,84.5292,1.000737,7.081899,2000,6.0,4.0
# From MPEC 2021-L04
C/2017 K2 (PANSTARRS),h,12/19.7537/2022,87.5522,88.2451,236.1883,1.000558,1.797574,2000,1.5,4.0
# From MPEC 2021-L04
C/2017 K5 (PANSTARRS),h,03/26.7742/2020,82.2333,102.3716,172.0127,1.006051,7.681001,2000,5.0,4.0
# From MPEC 2021-L04
C/2017 O1 (ASASSN),e,39.9279,25.7454,20.8373,359.3222,0.0001447,0.99584410,0.0000,10/15.0652/2017,2000,g 11.0,4.0
# From MPEC 2021-L04
C/2017 T2 (PANSTARRS),e,57.2258,64.3769,92.9997,2778,0.0000067,0.99941852,0.0000,05/04.9198/2020,2000,g  5.0,4.0
# From MPEC 2021-L04
C/2017 U7 (PANSTARRS),h,09/14.1545/2019,142.5908,276.2446,326.3169,1.000505,6.423390,2000,8.3,2.0
# From MPEC 2021-L04
C/2017 Y2 (PANSTARRS),h,11/04.7766/2020,128.4115,65.9943,147.8961,1.000746,4.632272,2000,15.0,4.0
# From MPEC 2021-L04
C/2018 F4 (PANSTARRS),h,12/04.1009/2019,78.0911,26.5147,263.2292,1.001199,3.440738,2000,11.0,6.0
# From MPEC 2021-L04
C/2018 N2 (ASASSN),h,11/10.9853/2019,77.5308,25.2374,24.4093,1.000169,3.124958,2000,6.0,4.0
# From MPC 82317
P/2011 JB15 (Spacewatch-Boattini),e,19.1472,153.5845,111.0448,7.357130,0.0493903,0.31757900,168.8055,06/02.0/2021,2000,g  9.0,4.0
# From MPEC 2020-AA5
C/2011 KP36 (Spacewatch),e,18.9860,173.2792,180.7075,39.00721,0.0040456,0.87486523,7.4070,06/02.0/2021,2000,g  4.5,4.0
# From MPC 87913
P/2011 N1 (ASH),e,35.7248,77.5948,330.3365,6.248911,0.0630954,0.54403400,208.2731,06/02.0/2021,2000,g 11.5,4.0
# From MPC 75714
P/2011 NO1 (Elenin),e,15.2482,295.8001,263.7953,5.524926,0.0758952,0.77468037,287.2855,06/02.0/2021,2000,g 15.0,4.0
# From MPC 82318
P/2011 P1 (McNaught),e,5.6597,4.2374,348.9345,7.466103,0.0483129,0.32740920,191.6843,06/02.0/2021,2000,g  9.0,4.0
# From MPC 77806
P/2011 Q3 (McNaught),e,6.0573,32.0266,310.9886,4.970385,0.0889445,0.53270231,320.5588,06/02.0/2021,2000,g 13.5,4.0
# From MPC 98558
P/2011 S1 (Gibbs),e,2.6847,218.8799,192.4474,8.585492,0.0391793,0.20054577,97.4306,06/02.0/2021,2000,g  8.0,4.0
# From MPC 79022
P/2011 UA134 (Spacewatch-PANSTARRS),e,10.4411,40.4067,32.4309,5.606207,0.0742507,0.62933695,259.2404,06/02.0/2021,2000,g 17.5,4.0
# From MPC 77406
P/2011 V1 (Boattini),e,7.3759,46.8307,269.2875,3.855496,0.1301918,0.55058444,126.7738,06/02.0/2021,2000,g 15.5,4.0
# From MPC 82718
P/2011 W1 (PANSTARRS),e,3.7186,161.7894,282.7439,4.661076,0.0979433,0.28727324,335.4441,06/02.0/2021,2000,g 11.5,4.0
# From MPC 79342
P/2011 Y2 (Boattini),e,6.3718,309.3654,131.9152,6.239694,0.0632352,0.70943714,213.5010,06/02.0/2021,2000,g 15.0,4.0
# From MPC 94669
P/2012 B1 (PANSTARRS),e,7.6131,36.2094,162.5487,6.529238,0.0590759,0.40937753,169.9030,06/02.0/2021,2000,g  9.0,4.0
# From MPC 78590
P/2012 C3 (PANSTARRS),e,9.0920,135.3677,344.9542,9.748681,0.0323806,0.63011148,359.9758,10/06.0/2011,2000,g 13.0,4.0
# From MPC 84931
P/2012 F2 (PANSTARRS),e,14.7174,227.0382,33.2895,6.330324,0.0618821,0.54234202,183.9272,06/02.0/2021,2000,g 12.0,4.0
# From MPC 79344
P/2012 G1 (PANSTARRS),e,11.6925,282.5440,286.1149,4.172871,0.1156250,0.38072240,359.9500,06/01.0/2012,2000,g 15.0,4.0
# From MPC 80898
P/2012 K3 (Gibbs),e,13.1945,125.8089,172.1854,3.625716,0.1427623,0.42335129,93.4359,06/02.0/2021,2000,g 15.0,4.0
# From MPC 88326
P/2012 NJ (La Sagra),e,84.6628,315.5452,338.3475,8.461260,0.0400453,0.84720281,131.1639,06/02.0/2021,2000,g 14.5,4.0
# From MPC 81470
P/2012 O1 (McNaught),e,7.4314,91.9765,238.2401,3.540658,0.1479374,0.59458028,121.6687,06/02.0/2021,2000,g 17.5,4.0
# From MPC 80899
P/2012 O2 (McNaught),e,24.4855,120.6800,183.4319,3.623974,0.1428652,0.53270541,108.2716,06/02.0/2021,2000,g 17.0,4.0
# From MPC 82720
P/2012 O3 (McNaught),e,16.6158,336.4133,344.7321,4.573364,0.1007745,0.64699820,323.5441,06/02.0/2021,2000,g 16.5,4.0
# From MPC 82720
P/2012 S2 (La Sagra),e,8.6857,51.1878,312.4793,4.414243,0.1062722,0.69132834,343.8730,06/02.0/2021,2000,g 17.0,4.0
# From MPC 82320
P/2012 T2 (PANSTARRS),e,12.5586,73.7229,310.4529,5.735242,0.0717590,0.16126083,212.6780,06/02.0/2021,2000,g 10.0,4.0
# From MPC 80900
P/2012 T3 (PANSTARRS),e,9.5673,114.4044,195.4713,6.151688,0.0645970,0.61724643,214.2576,06/02.0/2021,2000,g 15.0,4.0
# From MPC 87914
P/2012 TK8 (Tenagra),e,6.3402,288.9642,128.0158,4.127048,0.1175560,0.27420167,342.8271,06/02.0/2021,2000,g 13.0,4.0
# From MPC 82720
P/2012 U2 (PANSTARRS),e,10.7538,185.2941,228.2726,7.139545,0.0516652,0.49839390,161.5511,06/02.0/2021,2000,g 12.5,4.0
# From MPC 84024
P/2012 US27 (Siding Spring),e,39.3424,49.1788,0.8056,5.166444,0.0839299,0.64764211,256.1006,06/02.0/2021,2000,g 13.5,4.0
# From MPC 82721
P/2012 WA34 (Lemmon-PANSTARRS),e,6.0920,94.1495,354.4192,4.735939,0.0956302,0.34580908,287.3216,06/02.0/2021,2000,g 13.5,4.0
# From MPC 82721
P/2013 AL76 (Catalina),e,144.8419,145.9808,27.0942,6.497033,0.0595157,0.68625621,184.3737,06/02.0/2021,2000,g 16.0,4.0
# From MPC 91612
P/2013 G1 (Kowalski),e,5.4648,221.3832,51.4406,6.889902,0.0544985,0.51277745,148.6616,06/02.0/2021,2000,g 11.0,4.0
# From MPC 84025
P/2013 G4 (PANSTARRS),e,5.9164,339.6390,214.6837,4.440027,0.1053478,0.40951495,319.7071,06/02.0/2021,2000,g 15.0,4.0
# From MPC 91613
P/2013 J2 (McNaught),e,15.5311,289.4166,37.7549,6.222953,0.0634906,0.65763379,179.9587,06/02.0/2021,2000,g 13.0,4.0
# From MPC 86229
P/2013 N3 (PANSTARRS),e,2.1736,17.4755,323.8890,7.391356,0.0490476,0.59325345,130.6101,06/02.0/2021,2000,g 13.0,4.0
# From MPC 85834
P/2013 N5 (PANSTARRS),e,23.4365,187.1607,176.8958,6.798504,0.0556012,0.73210950,160.7253,06/02.0/2021,2000,g 17.0,4.0
# From MPC 85834
P/2013 P1 (PANSTARRS),e,18.7233,160.6006,138.1515,8.571694,0.0392739,0.60589045,118.3680,06/02.0/2021,2000,g 12.0,4.0
# From MPC 94671
P/2013 R3 (Catalina-PANSTARRS),e,0.8653,342.0008,11.1711,3.033691,0.1865293,0.27523292,169.3653,06/02.0/2021,2000,g 14.0,4.0
# From unp
P/2013 R3-A (Catalina-PANSTARRS),e,0.8647,341.9677,11.2100,3.033549,0.1865424,0.27520242,169.4001,06/02.0/2021,2000,g  9.0,4.0
# From MPEC 2015-M77
P/2013 R3-B (Catalina-PANSTARRS),e,0.8659,342.0235,11.1450,3.033768,0.1865222,0.27524793,169.3468,06/02.0/2021,2000,g  9.0,4.0
# From MPC 85835
P/2013 T1 (PANSTARRS),e,24.2862,10.0835,346.0977,5.860297,0.0694744,0.62389437,198.7167,06/02.0/2021,2000,g 16.5,4.0
# From MPC 86643
P/2013 T2 (Schwartz),e,9.4565,0.8084,345.5099,3.490144,0.1511607,0.50123121,83.0384,06/02.0/2021,2000,g 16.0,4.0
# From MPC 91613
P/2013 W1 (PANSTARRS),e,4.6955,117.8475,1.2811,3.490062,0.1511661,0.59276641,40.0156,06/02.0/2021,2000,g 17.5,4.0
# From MPC111767
C/2013 X1 (PANSTARRS),h,04/19.4540/2016,163.1938,131.5733,165.2091,1.000540,1.325572,2000,10.5,2.0
# From MPC101095
P/2013 YG46 (Spacewatch),e,7.8559,48.8525,242.5314,3.275973,0.1662240,0.45489109,263.0721,06/02.0/2021,2000,g 10.0,4.0
# From MPC 89728
